ORBCOMM FM37 [-]        
1 33064U 08031E   24012.88066205  .00002781  00000+0  43196-3 0  9995
2 33064  48.4413 293.8040 0006140 304.3704 168.8035 14.75705644836955
ORBCOMM FM40 [-]        
1 33065U 08031F   24013.18807677  .00003534  00000+0  52642-3 0  9999
2 33065  48.4431 282.8011 0007264 313.5768 201.8895 14.76877923837462
VESSELSAT 1 [-]         
1 37840U 11058C   24013.19942998  .00000459  00000+0  10590-3 0  9993
2 37840  19.9641   5.7393 0013574 216.4148 143.5332 14.11101927632859
ORBCOMM FM109 [+]       
1 40086U 14040A   24012.96067094  .00001561  00000+0  38691-3 0  9999
2 40086  47.0053 314.1796 0001461  54.6785 305.4236 14.56249319505161
ORBCOMM FM107 [+]       
1 40087U 14040B   24012.24013072  .00001572  00000+0  38944-3 0  9991
2 40087  47.0071 318.5188 0001617   5.0581 355.0320 14.56241215505018
ORBCOMM FM106 [-]       
1 40088U 14040C   24012.59606629  .00001972  00000+0  38483-3 0  9998
2 40088  47.0594 178.6927 0018288 170.3620 189.7624 14.66443324506844
ORBCOMM FM111 [-]       
1 40089U 14040D   24012.31101235  .00004747  00000+0  62953-3 0  9994
2 40089  47.0052  94.9600 0034389 225.6953 134.1120 14.80775157512744
ORBCOMM FM104 [-]       
1 40090U 14040E   24012.91627509  .00001339  00000+0  34763-3 0  9991
2 40090  47.0074 342.9548 0017753 343.0592  16.9698 14.54769491504773
